{
  "type": "FeatureCollection",
  "features": [
    {
      "type": "Feature",
      "properties": {
        "norad_id": 30726,
        "name": "FENGYUN 1C DEB",
        "group": "fengyun-1c-debris",
        "lat": 36.803266045784234,
        "lon": -24.968364672149615,
        "alt_km": 909.7785808606368,
        "timestamp": "2025-12-06T11:28:11.340922+00:00",
        "meta_object_name": "FENGYUN 1C DEB",
        "meta_object_id": "1999-025ASL",
        "meta_epoch": "2025-12-05T23:37:41.047968",
        "meta_mean_motion": 14.09257481,
        "meta_eccentricity": 0.00780692,
        "meta_inclination": 99.2679,
        "meta_ra_of_asc_node": 341.5414,
        "meta_arg_of_pericenter": 245.1914,
        "meta_mean_anomaly": 170.0283,
        "meta_ephemeris_type": 0,
        "meta_classification_type": "U",
        "meta_norad_cat_id": 30726,
        "meta_element_set_no": 999,
        "meta_rev_at_epoch": 95888,
        "meta_bstar": 0.0018694676,
        "meta_mean_motion_dot": 3.299e-05,
        "meta_mean_motion_ddot": 0,
        "tle_line1": "1 30726U 99025ASL 25339.98450287  .00003299  00000+0  18695-2 0  9991",
        "tle_line2": "2 30726  99.2679 341.5414 0078069 245.1914 170.0283 14.09257481958880"
      },
      "geometry": {
        "type": "Point",
        "coordinates": [
          -24.968364672149615,
          36.803266045784234
        ]
      }
    },
    {
      "type": "Feature",
      "properties": {
        "norad_id": 30728,
        "name": "FENGYUN 1C DEB",
        "group": "fengyun-1c-debris",
        "lat": -14.6873547534495,
        "lon": -10.391680279028463,
        "alt_km": 847.6315525157543,
        "timestamp": "2025-12-06T11:28:11.340932+00:00",
        "meta_object_name": "FENGYUN 1C DEB",
        "meta_object_id": "1999-025ASN",
        "meta_epoch": "2025-12-05T23:43:51.463776",
        "meta_mean_motion": 14.23470348,
        "meta_eccentricity": 0.00995248,
        "meta_inclination": 98.5294,
        "meta_ra_of_asc_node": 346.8798,
        "meta_arg_of_pericenter": 101.4213,
        "meta_mean_anomaly": 259.8165,
        "meta_ephemeris_type": 0,
        "meta_classification_type": "U",
        "meta_norad_cat_id": 30728,
        "meta_element_set_no": 999,
        "meta_rev_at_epoch": 97593,
        "meta_bstar": 0.00012159005,
        "meta_mean_motion_dot": 2.49e-06,
        "meta_mean_motion_ddot": 0,
        "tle_line1": "1 30728U 99025ASN 25339.98879009  .00000249  00000+0  12159-3 0  9992",
        "tle_line2": "2 30728  98.5294 346.8798 0099524 101.4213 259.8165 14.23470348975930"
      },
      "geometry": {
        "type": "Point",
        "coordinates": [
          -10.391680279028463,
          -14.6873547534495
        ]
      }
    },
    {
      "type": "Feature",
      "properties": {
        "norad_id": 30730,
        "name": "FENGYUN 1C DEB",
        "group": "fengyun-1c-debris",
        "lat": -58.95797383850128,
        "lon": -174.88711387426312,
        "alt_km": 870.2241094812216,
        "timestamp": "2025-12-06T11:28:11.340941+00:00",
        "meta_object_name": "FENGYUN 1C DEB",
        "meta_object_id": "1999-025ASQ",
        "meta_epoch": "2025-12-05T14:50:32.682912",
        "meta_mean_motion": 14.25426541,
        "meta_eccentricity": 0.00787521,
        "meta_inclination": 98.6182,
        "meta_ra_of_asc_node": 18.8632,
        "meta_arg_of_pericenter": 70.0126,
        "meta_mean_anomaly": 81.9344,
        "meta_ephemeris_type": 0,
        "meta_classification_type": "U",
        "meta_norad_cat_id": 30730,
        "meta_element_set_no": 999,
        "meta_rev_at_epoch": 96904,
        "meta_bstar": 0.0018704106,
        "meta_mean_motion_dot": 4.519e-05,
        "meta_mean_motion_ddot": 0,
        "tle_line1": "1 30730U 99025ASQ 25339.61843383  .00004519  00000+0  18704-2 0  9996",
        "tle_line2": "2 30730  98.6182  18.8632 0078752  70.0126  81.9344 14.25426541969043"
      },
      "geometry": {
        "type": "Point",
        "coordinates": [
          -174.88711387426312,
          -58.95797383850128
        ]
      }
    },
    {
      "type": "Feature",
      "properties": {
        "norad_id": 30731,
        "name": "FENGYUN 1C DEB",
        "group": "fengyun-1c-debris",
        "lat": 41.12815321066715,
        "lon": 51.825844491002876,
        "alt_km": 757.4378647817539,
        "timestamp": "2025-12-06T11:28:11.340951+00:00",
        "meta_object_name": "FENGYUN 1C DEB",
        "meta_object_id": "1999-025ASR",
        "meta_epoch": "2025-12-05T22:14:32.152992",
        "meta_mean_motion": 14.41616979,
        "meta_eccentricity": 0.00143066,
        "meta_inclination": 98.8602,
        "meta_ra_of_asc_node": 59.083,
        "meta_arg_of_pericenter": 264.974,
        "meta_mean_anomaly": 158.001,
        "meta_ephemeris_type": 0,
        "meta_classification_type": "U",
        "meta_norad_cat_id": 30731,
        "meta_element_set_no": 999,
        "meta_rev_at_epoch": 97258,
        "meta_bstar": 0.0034740298,
        "meta_mean_motion_dot": 0.00011292,
        "meta_mean_motion_ddot": 0,
        "tle_line1": "1 30731U 99025ASR 25339.92676103  .00011292  00000+0  34740-2 0  9999",
        "tle_line2": "2 30731  98.8602  59.0830 0014306 264.9740 158.0010 14.41616979972584"
      },
      "geometry": {
        "type": "Point",
        "coordinates": [
          51.825844491002876,
          41.12815321066715
        ]
      }
    },
    {
      "type": "Feature",
      "properties": {
        "norad_id": 30732,
        "name": "FENGYUN 1C DEB",
        "group": "fengyun-1c-debris",
        "lat": -74.44328219245959,
        "lon": 34.61454440052683,
        "alt_km": 837.0510587152912,
        "timestamp": "2025-12-06T11:28:11.340961+00:00",
        "meta_object_name": "FENGYUN 1C DEB",
        "meta_object_id": "1999-025ASS",
        "meta_epoch": "2025-12-06T00:00:53.650944",
        "meta_mean_motion": 14.03886282,
        "meta_eccentricity": 0.012367,
        "meta_inclination": 98.8044,
        "meta_ra_of_asc_node": 0.3233,
        "meta_arg_of_pericenter": 227.9547,
        "meta_mean_anomaly": 162.8989,
        "meta_ephemeris_type": 0,
        "meta_classification_type": "U",
        "meta_norad_cat_id": 30732,
        "meta_element_set_no": 999,
        "meta_rev_at_epoch": 96097,
        "meta_bstar": 0.0007500417,
        "meta_mean_motion_dot": 1.223e-05,
        "meta_mean_motion_ddot": 0,
        "tle_line1": "1 30732U 99025ASS 25340.00062096  .00001223  00000+0  75004-3 0  9993",
        "tle_line2": "2 30732  98.8044   0.3233 0123670 227.9547 162.8989 14.03886282960972"
      },
      "geometry": {
        "type": "Point",
        "coordinates": [
          34.61454440052683,
          -74.44328219245959
        ]
      }
    },
    {
      "type": "Feature",
      "properties": {
        "norad_id": 30735,
        "name": "FENGYUN 1C DEB",
        "group": "fengyun-1c-debris",
        "lat": 59.561910326081765,
        "lon": 36.33782971228585,
        "alt_km": 845.6262471727514,
        "timestamp": "2025-12-06T11:28:11.340971+00:00",
        "meta_object_name": "FENGYUN 1C DEB",
        "meta_object_id": "1999-025ASV",
        "meta_epoch": "2025-12-03T04:10:37.368768",
        "meta_mean_motion": 14.23845329,
        "meta_eccentricity": 0.00589255,
        "meta_inclination": 98.7657,
        "meta_ra_of_asc_node": 48.2686,
        "meta_arg_of_pericenter": 272.618,
        "meta_mean_anomaly": 142.1749,
        "meta_ephemeris_type": 0,
        "meta_classification_type": "U",
        "meta_norad_cat_id": 30735,
        "meta_element_set_no": 999,
        "meta_rev_at_epoch": 96612,
        "meta_bstar": 0.002233703,
        "meta_mean_motion_dot": 5.164e-05,
        "meta_mean_motion_ddot": 0,
        "tle_line1": "1 30735U 99025ASV 25337.17404362  .00005164  00000+0  22337-2 0  9994",
        "tle_line2": "2 30735  98.7657  48.2686 0058925 272.6180 142.1749 14.23845329966124"
      },
      "geometry": {
        "type": "Point",
        "coordinates": [
          36.33782971228585,
          59.561910326081765
        ]
      }
    },
    {
      "type": "Feature",
      "properties": {
        "norad_id": 30736,
        "name": "FENGYUN 1C DEB",
        "group": "fengyun-1c-debris",
        "lat": -80.72367654785036,
        "lon": 90.26629623888766,
        "alt_km": 1229.013545130486,
        "timestamp": "2025-12-06T11:28:11.340982+00:00",
        "meta_object_name": "FENGYUN 1C DEB",
        "meta_object_id": "1999-025ASW",
        "meta_epoch": "2025-12-04T01:58:09.333408",
        "meta_mean_motion": 13.61597352,
        "meta_eccentricity": 0.02807621,
        "meta_inclination": 98.7853,
        "meta_ra_of_asc_node": 16.8843,
        "meta_arg_of_pericenter": 77.1136,
        "meta_mean_anomaly": 339.3933,
        "meta_ephemeris_type": 0,
        "meta_classification_type": "U",
        "meta_norad_cat_id": 30736,
        "meta_element_set_no": 999,
        "meta_rev_at_epoch": 92735,
        "meta_bstar": 0.0034506707,
        "meta_mean_motion_dot": 3.401e-05,
        "meta_mean_motion_ddot": 0,
        "tle_line1": "1 30736U 99025ASW 25338.08205247  .00003401  00000+0  34507-2 0  9991",
        "tle_line2": "2 30736  98.7853  16.8843 0280762  77.1136 339.3933 13.61597352927352"
      },
      "geometry": {
        "type": "Point",
        "coordinates": [
          90.26629623888766,
          -80.72367654785036
        ]
      }
    }
  ]
}